{
    "links": {
        "self": "http://www.neowsapp.com/rest/v1/neo/3279221?api_key=iIulBulltgU6a56xZRHN4H3l9WmuAYTsLGpBGhQ2"
    },
    "id": "3279221",
    "neo_reference_id": "3279221",
    "name": "(2005 KJ10)",
    "designation": "2005 KJ10",
    "nasa_jpl_url": "http://ssd.jpl.nasa.gov/sbdb.cgi?sstr=3279221",
    "absolute_magnitude_h": 21.3,
    "estimated_diameter": {
        "kilometers": {
            "estimated_diameter_min": 0.1460679643,
            "estimated_diameter_max": 0.3266178974
        },
        "meters": {
            "estimated_diameter_min": 146.0679642714,
            "estimated_diameter_max": 326.6178974458
        },
        "miles": {
            "estimated_diameter_min": 0.090762397,
            "estimated_diameter_max": 0.2029508896
        },
        "feet": {
            "estimated_diameter_min": 479.2256199,
            "estimated_diameter_max": 1071.581062656
        }
    },
    "is_potentially_hazardous_asteroid": true,
    "close_approach_data": [
        {
            "close_approach_date": "2005-06-04",
            "close_approach_date_full": "2005-Jun-04 23:20",
            "epoch_date_close_approach": 1117927200000,
            "relative_velocity": {
                "kilometers_per_second": "14.4236453263",
                "kilometers_per_hour": "51925.1231747758",
                "miles_per_hour": "32264.25223046"
            },
            "miss_distance": {
                "astronomical": "0.0512249908",
                "lunar": "19.9265214212",
                "kilometers": "7663149.514449596",
                "miles": "4761660.3071565848"
            },
            "orbiting_body": "Earth"
        }
    ],
    "orbital_data": {
        "orbit_id": "8",
        "orbit_determination_date": "2017-04-06 09:10:55",
        "first_observation_date": "2005-05-31",
        "last_observation_date": "2005-06-01",
        "data_arc_in_days": 1,
        "observations_used": 29,
        "orbit_uncertainty": "9",
        "minimum_orbit_intersection": ".0294546",
        "jupiter_tisserand_invariant": "3.683",
        "epoch_osculation": "2453522.5",
        "eccentricity": ".5878286960069902",
        "semi_major_axis": "1.919483344557348",
        "inclination": "8.284407094023237",
        "ascending_node_longitude": "81.40372463497805",
        "orbital_period": "971.3482207151712",
        "perihelion_distance": ".7911559531190659",
        "perihelion_argument": "233.7140882086191",
        "aphelion_distance": "3.04781073599563",
        "perihelion_time": "2453568.458785653934",
        "mean_anomaly": "342.9668058451431",
        "mean_motion": ".3706188906538008",
        "equinox": "J2000",
        "orbit_class": {
            "orbit_class_type": "APO",
            "orbit_class_description": "Near-Earth asteroid orbits which cross the Earth’s orbit similar to that of 1862 Apollo",
            "orbit_class_range": "a (semi-major axis) > 1.0 AU; q (perihelion) < 1.017 AU"
        }
    },
    "is_sentry_object": false
}